STARLINK-31592          
1 59467U 24068N   25115.47983362 -.00001380  00000+0 -40640-4 0  9998
2 59467  42.9993  31.8559 0001157 261.7517  98.3203 15.27579800 59859
STARLINK-31267          
1 59468U 24068P   25114.76605296  .00002072  00000+0  84804-4 0  9994
2 59468  43.0007  31.6276 0001161 222.4098 137.6664 15.27575217 59794
STARLINK-31381          
1 59469U 24068Q   25115.46747667 -.00001454  00000+0 -43364-4 0  9993
2 59469  43.0044  28.3112 0001742 276.5832  83.4821 15.27552139 59891
STARLINK-31546          
1 59470U 24068R   25114.79432017  .00001266  00000+0  55522-4 0  9998
2 59470  43.0013  31.8517 0001193 270.0076  90.0639 15.27586148 59793
STARLINK-31575          
1 59471U 24068S   25115.58335648  .00081235  00000+0  29339-2 0  9998
2 59471  43.0021  27.5002 0002039 258.8609  82.9732 15.27526988  5869
STARLINK-31610          
1 59473U 24068U   25114.79255110  .00002601  00000+0  10396-3 0  9991
2 59473  42.9978  35.2919 0001698 278.7479  81.3180 15.27594687 59757
STARLINK-31581          
1 59474U 24068V   25115.44610799  .00002036  00000+0  83517-4 0  9991
2 59474  42.9972  24.6707 0000238 312.2355  47.8477 15.27559200 59933
STARLINK-31566          
1 59475U 24068W   25115.45026107  .00002819  00000+0  11190-3 0  9993
2 59475  43.0035  31.6308 0001459 282.3700  77.6989 15.27589680 59853
STARLINK-31515          
1 59476U 24068X   25115.45796491  .00002209  00000+0  89753-4 0  9998
2 59476  43.0030  31.6882 0001931 280.4122  79.6512 15.27594288 59852
STARLINK-31531          
1 59477U 24068Y   25115.58335648 -.00909683  00000+0 -31320-1 0  9994
2 59477  42.9998 335.9922 0001089 265.5349 214.2511 15.32132445  6035
STARLINK-31753          
1 59484U 24071A   25115.01169551  .00017060  00000+0  40168-3 0  9991
2 59484  42.9985 344.1715 0002260 298.9755  61.0875 15.41666176 59418
STARLINK-31733          
1 59486U 24071C   25114.96977771 -.00001064  00000+0 -18206-4 0  9995
2 59486  43.0036 344.7268 0000941 287.6500  72.4254 15.40710319 59409
STARLINK-31657          
1 59487U 24071D   25114.97873440  .00002692  00000+0  71652-4 0  9995
2 59487  43.0013 344.7912 0001367 278.1407  81.9295 15.40710554 59406
STARLINK-31754          
1 59488U 24071E   25115.62032143 -.00000949  00000+0 -24979-4 0  9991
2 59488  42.9990 343.5967 0000524  48.0175 312.0721 15.27583663 59479
STARLINK-31638          
1 59489U 24071F   25115.00994650  .00005038  00000+0  12772-3 0  9993
2 59489  43.0007 344.1556 0001768 260.2106  99.8551 15.40718006 59416
STARLINK-31670          
1 59490U 24071G   25114.99423016  .00002096  00000+0  85687-4 0  9992
2 59490  43.0010 350.9769 0002015 309.2000  50.8673 15.27576625 59333
STARLINK-31712          
1 59491U 24071H   25114.99552386  .00013152  00000+0  48658-3 0  9997
2 59491  42.9997 350.9662 0001981 307.1401  52.9270 15.27581602 59338
STARLINK-31684          
1 59492U 24071J   25115.62416636  .00000176  00000+0  15919-4 0  9993
2 59492  43.0011 343.6257 0000513 312.8596  47.2213 15.27579526 59476
STARLINK-31678          
1 59493U 24071K   25114.97797830  .00005595  00000+0  21247-3 0  9999
2 59493  43.0042 347.3728 0001686 264.6939  95.3720 15.27613344 58194
STARLINK-31744          
1 59494U 24071L   25115.62798669  .00002234  00000+0  90635-4 0  9999
2 59494  43.0053 343.6551 0001282 278.0580  82.0126 15.27601613 59474
STARLINK-31719          
1 59495U 24071M   25114.97425460  .00003033  00000+0  79821-4 0  9995
2 59495  43.0012 344.7546 0001619 276.2710  83.7962 15.40710562 59403
STARLINK-31728          
1 59496U 24071N   25115.62476100  .00005813  00000+0  14616-3 0  9994
2 59496  43.0021 341.0401 0000826 283.5571  76.5193 15.40733500 59503
STARLINK-31720          
1 59497U 24071P   25115.60686814  .00002809  00000+0  74495-4 0  9992
2 59497  43.0027 340.8992 0001365 278.3742  81.6960 15.40698837 59505
STARLINK-31731          
1 59498U 24071Q   25115.61583065  .00000321  00000+0  14945-4 0  9999
2 59498  43.0020 340.9683 0001654 279.4884  80.5786 15.40692918 59505
STARLINK-31742          
1 59499U 24071R   25113.98840958  .00020644  00000+0  50168-3 0  9991
2 59499  43.0032 350.2528 0001297 310.9080  49.1664 15.40606018 59257
STARLINK-31512          
1 59500U 24071S   25115.54251043  .00001061  00000+0  32647-4 0  9994
2 59500  43.0000 303.3395 0001664 282.1330  77.9340 15.40703750 59905
STARLINK-31458          
1 59501U 24071T   25115.61355254  .00003600  00000+0  93315-4 0  9992
2 59501  43.0017 340.9502 0000703 282.0467  78.0311 15.40723516 59502
STARLINK-31357          
1 59502U 24071U   25115.01666283  .00003936  00000+0  10135-3 0  9994
2 59502  43.0031 344.2060 0001445 292.7467  67.3237 15.40728636 59413
STARLINK-31508          
1 59503U 24071V   25115.01220193  .00003196  00000+0  83763-4 0  9997
2 59503  43.0015 344.1764 0001098 306.7151  53.3605 15.40692169 59411
STARLINK-31535          
1 59504U 24071W   25115.63573857  .00000352  00000+0  22309-4 0  9994
2 59504  43.0011 343.7053 0001174 291.0079  69.0647 15.27573851 59471
STARLINK-31533          
1 59505U 24071X   25115.00772499  .00001589  00000+0  45304-4 0  9992
2 59505  42.9991 344.1350 0000985 254.5701 105.5046 15.40696133 59414
STARLINK-31524          
1 59506U 24071Y   25113.98537333 -.00271320  00000+0 -72083-2 0  9990
2 59506  42.9991 338.7881 0000253 292.7667  67.3162 15.38587859 59387
STARLINK-31635          
1 59511U 24073A   25115.60845807 -.00000069  00000+0  70146-5 0  9997
2 59511  43.0023 313.9970 0001101 256.2092 103.8637 15.27576554 57531
STARLINK-31650          
1 59512U 24073B   25115.25211334  .00000931  00000+0  43343-4 0  9996
2 59512  43.0004 316.4829 0000999 305.4448  54.6311 15.27579701 57470
STARLINK-31658          
1 59513U 24073C   25115.58525194 -.00000721  00000+0 -99986-5 0  9999
2 59513  43.0031 275.6664 0001489 259.7053 100.3636 15.40695337 57964
STARLINK-31669          
1 59515U 24073E   25115.61873617  .00000446  00000+0  25748-4 0  9997
2 59515  43.0027 314.0731 0001567 285.2417  74.8261 15.27578377 57530
STARLINK-31671          
1 59516U 24073F   25115.58932474  .00000392  00000+0  23759-4 0  9991
2 59516  42.9962 314.7049 0000614 255.4332 104.6452 15.27579715 57523
STARLINK-31674          
1 59517U 24073G   25115.56491410  .00002125  00000+0  86734-4 0  9998
2 59517  42.9998 314.5292 0002175 262.8015  97.2589 15.27581716 57527
STARLINK-31679          
1 59519U 24073J   25114.96270542  .00001646  00000+0  46656-4 0  9990
2 59519  43.0029 313.4200 0001848 264.9195  95.1451 15.40707127 57482
STARLINK-31370          
1 59520U 24073K   25115.58677060 -.00002167  00000+0 -69286-4 0  9992
2 59520  42.9986 314.6928 0000513 337.1763  22.9066 15.27563724 57529
STARLINK-31404          
1 59521U 24073L   25115.59703740  .00000277  00000+0  19568-4 0  9995
2 59521  43.0007 314.7631 0000836 257.5494 102.5264 15.27578709 57526
STARLINK-31453          
1 59522U 24073M   25115.23135588  .00000578  00000+0  30540-4 0  9993
2 59522  43.0017 298.7230 0001354 272.3245  87.7452 15.27576900 57679
STARLINK-31476          
1 59523U 24073N   25115.58291017 -.00002449  00000+0 -79531-4 0  9996
2 59523  43.0011 314.6638 0001183 286.0367  74.0354 15.27573490 57526
STARLINK-31376          
1 59524U 24073P   25115.61102345 -.00002276  00000+0 -73231-4 0  9995
2 59524  43.0025 314.0170 0001588 277.4836  82.5835 15.27575014 57534
STARLINK-31538          
1 59525U 24073Q   25115.55719703  .00000808  00000+0  38868-4 0  9995
2 59525  43.0015 314.4685 0001501 270.8230  89.2450 15.27585082 57521
STARLINK-31564          
1 59526U 24073R   25115.61487634  .00000790  00000+0  38202-4 0  9990
2 59526  43.0025 314.0410 0001042 246.7099 113.3643 15.27585956 57534
STARLINK-31452          
1 59527U 24073S   25115.59318701 -.00000811  00000+0 -19952-4 0  9993
2 59527  43.0010 314.7387 0001025 315.2700  44.8069 15.27570820 57524
STARLINK-31618          
1 59528U 24073T   25115.57134996  .00005121  00000+0  19583-3 0  9990
2 59528  42.9989 314.5718 0001001 260.5253  99.5485 15.27517641 57524
STARLINK-31513          
1 59529U 24073U   25115.52570173  .00000240  00000+0  18243-4 0  9997
2 59529  43.0009 311.5894 0000526 252.5912 107.4882 15.27579730 57556
STARLINK-31392          
1 59530U 24073V   25115.57520005 -.00000766  00000+0 -18333-4 0  9998
2 59530  43.0001 314.6070 0000428  59.1734 300.9160 15.27573099 58758
STARLINK-31619          
1 59531U 24073W   25115.62644792 -.00001358  00000+0 -39835-4 0  9993
2 59531  42.9989 314.1270 0001586 272.5175  87.5495 15.27570426 58654
STARLINK-31624          
1 59532U 24073X   25115.56709611  .00081208  00000+0  17068-2 0  9991
2 59532  43.0008 305.7950 0005183 308.0162  52.0228 15.44362354 58837
STARLINK-31509          
1 59533U 24073Y   25115.53550617  .00002020  00000+0  82893-4 0  9994
2 59533  43.0024 315.1761 0000982 267.4142  92.6598 15.27583351 57516
STARLINK-31734          
1 59534U 24074A   25114.97747617  .00017282  00000+0  42041-3 0  9997
2 59534  43.0038 338.9372 0001454 304.6219  55.4500 15.40672641 57322
STARLINK-31738          
1 59535U 24074B   25115.62372773 -.00005351  00000+0 -18499-3 0  9994
2 59535  43.0022 335.9576 0000232 293.3781  66.7046 15.27598591 57416
STARLINK-31721          
1 59536U 24074C   25114.97195642  .00004563  00000+0  17519-3 0  9994
2 59536  43.0074 343.2161 0000932 268.4065  91.6680 15.27586149 57272
STARLINK-31737          
1 59537U 24074D   25115.63995146  .00003212  00000+0  12615-3 0  9998
2 59537  42.9995 339.6245 0000981 297.6303  62.4448 15.27592488 57370
STARLINK-31725          
1 59538U 24074E   25114.99123900  .00013935  00000+0  51311-3 0  9997
2 59538  43.0033 332.6931 0000913 232.8549 127.2219 15.27697244 57393
STARLINK-31539          
1 59539U 24074F   25114.99764952  .00002416  00000+0  97260-4 0  9992
2 59539  43.0035 343.4017 0000966 271.9875  88.0866 15.27586392 57275
